<kml xmlns="https://www.opengis.net/kml/2.2">
<Document>
    <Style id="Schengen">
        <IconStyle>
            <color>ff00ff00</color>
        </IconStyle>
    </Style>
    <Style id="Non Schengen">
        <IconStyle>
            <color>ff0000ff</color>
        </IconStyle>
    </Style
    <Placemark>
        <name>BIKF</name>
        <styleUrl>Schengen</styleUrl>
        <Point>
            <coordinates>N635906,W0223620</coordinates>
        </Point>
    </Placemark>
    <Placemark>
        <name>CYUL</name>
        <styleUrl>Non Schengen</styleUrl>
        <Point>
            <coordinates>N452805,W0734429</coordinates>
        </Point>
    </Placemark>
    <Placemark>
        <name>CYYZ</name>
        <styleUrl>Non Schengen</styleUrl>
        <Point>
            <coordinates>N434038,W0793750</coordinates>
        </Point>
    </Placemark>
    <Placemark>
        <name>DAAG</name>
        <styleUrl>Non Schengen</styleUrl>
        <Point>
            <coordinates>N364138,E0031252</coordinates>
        </Point>
    </Placemark>
    <Placemark>
        <name>DTTA</name>
        <styleUrl>Non Schengen</styleUrl>
        <Point>
            <coordinates>N365104,E0101337</coordinates>
        </Point>
    </Placemark>
    <Placemark>
        <name>EBAW</name>
        <styleUrl>Schengen</styleUrl>
        <Point>
            <coordinates>N511122,E0042737</coordinates>
        </Point>
    </Placemark>
    <Placemark>
        <name>EBBR</name>
        <styleUrl>Schengen</styleUrl>
        <Point>
            <coordinates>N505405,E0042904</coordinates>
        </Point>
    </Placemark>
    <Placemark>
        <name>EBLG</name>
        <styleUrl>Schengen</styleUrl>
        <Point>
            <coordinates>N503811,E0052634</coordinates>
        </Point>
    </Placemark>
    <Placemark>
        <name>EBOS</name>
        <styleUrl>Schengen</styleUrl>
        <Point>
            <coordinates>N511156,E0025144</coordinates>
        </Point>
    </Placemark>
    <Placemark>
        <name>EDDB</name>
        <styleUrl>Schengen</styleUrl>
        <Point>
            <coordinates>N522144,E0133002</coordinates>
        </Point>
    </Placemark>
    <Placemark>
        <name>EDDF</name>
        <styleUrl>Schengen</styleUrl>
        <Point>
            <coordinates>N500200,E0083414</coordinates>
        </Point>
    </Placemark>
    <Placemark>
        <name>EDDH</name>
        <styleUrl>Schengen</styleUrl>
        <Point>
            <coordinates>N533749,E0095918</coordinates>
        </Point>
    </Placemark>
    <Placemark>
        <name>EDDK</name>
        <styleUrl>Schengen</styleUrl>
        <Point>
            <coordinates>N505157,E0070834</coordinates>
        </Point>
    </Placemark>
    <Placemark>
        <name>EDDL</name>
        <styleUrl>Schengen</styleUrl>
        <Point>
            <coordinates>N511651,E0064526</coordinates>
        </Point>
    </Placemark>
    <Placemark>
        <name>EDDM</name>
        <styleUrl>Schengen</styleUrl>
        <Point>
            <coordinates>N482114,E0114710</coordinates>
        </Point>
    </Placemark>
    <Placemark>
        <name>EDDN</name>
        <styleUrl>Schengen</styleUrl>
        <Point>
            <coordinates>N492955,E0110441</coordinates>
        </Point>
    </Placemark>
    <Placemark>
        <name>EDDP</name>
        <styleUrl>Schengen</styleUrl>
        <Point>
            <coordinates>N512526,E0121411</coordinates>
        </Point>
    </Placemark>
    <Placemark>
        <name>EDDS</name>
        <styleUrl>Schengen</styleUrl>
        <Point>
            <coordinates>N484124,E0091319</coordinates>
        </Point>
    </Placemark>
    <Placemark>
        <name>EDDT</name>
        <styleUrl>Schengen</styleUrl>
        <Point>
            <coordinates>N523335,E0131716</coordinates>
        </Point>
    </Placemark>
    <Placemark>
        <name>EDDV</name>
        <styleUrl>Schengen</styleUrl>
        <Point>
            <coordinates>N522737,E0094101</coordinates>
        </Point>
    </Placemark>
    <Placemark>
        <name>EETN</name>
        <styleUrl>Schengen</styleUrl>
        <Point>
            <coordinates>N592448,E0244957</coordinates>
        </Point>
    </Placemark>
    <Placemark>
        <name>EFHK</name>
        <styleUrl>Schengen</styleUrl>
        <Point>
            <coordinates>N601902,E0245748</coordinates>
        </Point>
    </Placemark>
    <Placemark>
        <name>EGAA</name>
        <styleUrl>Non Schengen</styleUrl>
        <Point>
            <coordinates>N543927,W0061257</coordinates>
        </Point>
    </Placemark>
    <Placemark>
        <name>EGBB</name>
        <styleUrl>Non Schengen</styleUrl>
        <Point>
            <coordinates>N522714,W0014453</coordinates>
        </Point>
    </Placemark>
    <Placemark>
        <name>EGCC</name>
        <styleUrl>Non Schengen</styleUrl>
        <Point>
            <coordinates>N532114,W0021630</coordinates>
        </Point>
    </Placemark>
    <Placemark>
        <name>EGFF</name>
        <styleUrl>Non Schengen</styleUrl>
        <Point>
            <coordinates>N512348,W0032036</coordinates>
        </Point>
    </Placemark>
    <Placemark>
        <name>EGGD</name>
        <styleUrl>Non Schengen</styleUrl>
        <Point>
            <coordinates>N512258,W0024309</coordinates>
        </Point>
    </Placemark>
    <Placemark>
        <name>EGGP</name>
        <styleUrl>Non Schengen</styleUrl>
        <Point>
            <coordinates>N532001,W0025059</coordinates>
        </Point>
    </Placemark>
    <Placemark>
        <name>EGGW</name>
        <styleUrl>Non Schengen</styleUrl>
        <Point>
            <coordinates>N515229,W0002206</coordinates>
        </Point>
    </Placemark>
    <Placemark>
        <name>EGHI</name>
        <styleUrl>Non Schengen</styleUrl>
        <Point>
            <coordinates>N505701,W0012124</coordinates>
        </Point>
    </Placemark>
    <Placemark>
        <name>EGKK</name>
        <styleUrl>Non Schengen</styleUrl>
        <Point>
            <coordinates>N510853,W0001125</coordinates>
        </Point>
    </Placemark>
    <Placemark>
        <name>EGLL</name>
        <styleUrl>Non Schengen</styleUrl>
        <Point>
            <coordinates>N512839,W0002741</coordinates>
        </Point>
    </Placemark>
    <Placemark>
        <name>EGMC</name>
        <styleUrl>Non Schengen</styleUrl>
        <Point>
            <coordinates>N513413,E0004136</coordinates>
        </Point>
    </Placemark>
    <Placemark>
        <name>EGNM</name>
        <styleUrl>Non Schengen</styleUrl>
        <Point>
            <coordinates>N535158,W0013939</coordinates>
        </Point>
    </Placemark>
    <Placemark>
        <name>EGNT</name>
        <styleUrl>Non Schengen</styleUrl>
        <Point>
            <coordinates>N550217,W0014123</coordinates>
        </Point>
    </Placemark>
    <Placemark>
        <name>EGNX</name>
        <styleUrl>Non Schengen</styleUrl>
        <Point>
            <coordinates>N524952,W0011940</coordinates>
        </Point>
    </Placemark>
    <Placemark>
        <name>EGPH</name>
        <styleUrl>Non Schengen</styleUrl>
        <Point>
            <coordinates>N555700,W0032221</coordinates>
        </Point>
    </Placemark>
    <Placemark>
        <name>EGPK</name>
        <styleUrl>Non Schengen</styleUrl>
        <Point>
            <coordinates>N553034,W0043540</coordinates>
        </Point>
    </Placemark>
    <Placemark>
        <name>EGSS</name>
        <styleUrl>Non Schengen</styleUrl>
        <Point>
            <coordinates>N515306,E0001406</coordinates>
        </Point>
    </Placemark>
    <Placemark>
        <name>EHAM</name>
        <styleUrl>Schengen</styleUrl>
        <Point>
            <coordinates>N521829,E0044551</coordinates>
        </Point>
    </Placemark>
    <Placemark>
        <name>EHEH</name>
        <styleUrl>Schengen</styleUrl>
        <Point>
            <coordinates>N512700,E0052228</coordinates>
        </Point>
    </Placemark>
    <Placemark>
        <name>EHRD</name>
        <styleUrl>Schengen</styleUrl>
        <Point>
            <coordinates>N515725,E0042614</coordinates>
        </Point>
    </Placemark>
    <Placemark>
        <name>EIDW</name>
        <styleUrl>Non Schengen</styleUrl>
        <Point>
            <coordinates>N532517,W0061612</coordinates>
        </Point>
    </Placemark>
    <Placemark>
        <name>EKBI</name>
        <styleUrl>Schengen</styleUrl>
        <Point>
            <coordinates>N554425,E0090906</coordinates>
        </Point>
    </Placemark>
    <Placemark>
        <name>EKCH</name>
        <styleUrl>Schengen</styleUrl>
        <Point>
            <coordinates>N553705,E0123922</coordinates>
        </Point>
    </Placemark>
    <Placemark>
        <name>ELLX</name>
        <styleUrl>Schengen</styleUrl>
        <Point>
            <coordinates>N493724,E0061216</coordinates>
        </Point>
    </Placemark>
    <Placemark>
        <name>ENBR</name>
        <styleUrl>Schengen</styleUrl>
        <Point>
            <coordinates>N601737,E0051305</coordinates>
        </Point>
    </Placemark>
    <Placemark>
        <name>ENGM</name>
        <styleUrl>Schengen</styleUrl>
        <Point>
            <coordinates>N601210,E0110502</coordinates>
        </Point>
    </Placemark>
    <Placemark>
        <name>EPKK</name>
        <styleUrl>Schengen</styleUrl>
        <Point>
            <coordinates>N500440,E0194705</coordinates>
        </Point>
    </Placemark>
    <Placemark>
        <name>EPKT</name>
        <styleUrl>Schengen</styleUrl>
        <Point>
            <coordinates>N502827,E0190448</coordinates>
        </Point>
    </Placemark>
    <Placemark>
        <name>EPWA</name>
        <styleUrl>Schengen</styleUrl>
        <Point>
            <coordinates>N520957,E0205802</coordinates>
        </Point>
    </Placemark>
    <Placemark>
        <name>ESGG</name>
        <styleUrl>Schengen</styleUrl>
        <Point>
            <coordinates>N573936,E0121728</coordinates>
        </Point>
    </Placemark>
    <Placemark>
        <name>ESKN</name>
        <styleUrl>Schengen</styleUrl>
        <Point>
            <coordinates>N584719,E0165413</coordinates>
        </Point>
    </Placemark>
    <Placemark>
        <name>ESSA</name>
        <styleUrl>Schengen</styleUrl>
        <Point>
            <coordinates>N593907,E0175507</coordinates>
        </Point>
    </Placemark>
    <Placemark>
        <name>ETNL</name>
        <styleUrl>Non Schengen</styleUrl>
        <Point>
            <coordinates>N535509,E0121642</coordinates>
        </Point>
    </Placemark>
    <Placemark>
        <name>EVRA</name>
        <styleUrl>Schengen</styleUrl>
        <Point>
            <coordinates>N565525,E0235816</coordinates>
        </Point>
    </Placemark>
    <Placemark>
        <name>EYVI</name>
        <styleUrl>Schengen</styleUrl>
        <Point>
            <coordinates>N543813,E0251716</coordinates>
        </Point>
    </Placemark>
    <Placemark>
        <name>GCFV</name>
        <styleUrl>Schengen</styleUrl>
        <Point>
            <coordinates>N282710,W0135150</coordinates>
        </Point>
    </Placemark>
    <Placemark>
        <name>GCLP</name>
        <styleUrl>Schengen</styleUrl>
        <Point>
            <coordinates>N275555,W0152312</coordinates>
        </Point>
    </Placemark>
    <Placemark>
        <name>GCRR</name>
        <styleUrl>Schengen</styleUrl>
        <Point>
            <coordinates>N285644,W0133619</coordinates>
        </Point>
    </Placemark>
    <Placemark>
        <name>GCXO</name>
        <styleUrl>Schengen</styleUrl>
        <Point>
            <coordinates>N282858,W0162030</coordinates>
        </Point>
    </Placemark>
    <Placemark>
        <name>GMFF</name>
        <styleUrl>Non Schengen</styleUrl>
        <Point>
            <coordinates>N335538,W0045840</coordinates>
        </Point>
    </Placemark>
    <Placemark>
        <name>GMMN</name>
        <styleUrl>Non Schengen</styleUrl>
        <Point>
            <coordinates>N332151,W0073454</coordinates>
        </Point>
    </Placemark>
    <Placemark>
        <name>GMMX</name>
        <styleUrl>Non Schengen</styleUrl>
        <Point>
            <coordinates>N313631,W0080227</coordinates>
        </Point>
    </Placemark>
    <Placemark>
        <name>GMTT</name>
        <styleUrl>Non Schengen</styleUrl>
        <Point>
            <coordinates>N354354,W0055516</coordinates>
        </Point>
    </Placemark>
    <Placemark>
        <name>HECA</name>
        <styleUrl>Non Schengen</styleUrl>
        <Point>
            <coordinates>N300641,E0312450</coordinates>
        </Point>
    </Placemark>
    <Placemark>
        <name>HTDA</name>
        <styleUrl>Non Schengen</styleUrl>
        <Point>
            <coordinates>S065232,E0391212</coordinates>
        </Point>
    </Placemark>
    <Placemark>
        <name>KATL</name>
        <styleUrl>Non Schengen</styleUrl>
        <Point>
            <coordinates>N333800,W0842600</coordinates>
        </Point>
    </Placemark>
    <Placemark>
        <name>KCLT</name>
        <styleUrl>Non Schengen</styleUrl>
        <Point>
            <coordinates>N351300,W0805700</coordinates>
        </Point>
    </Placemark>
    <Placemark>
        <name>KEWR</name>
        <styleUrl>Non Schengen</styleUrl>
        <Point>
            <coordinates>N404148,W0741006</coordinates>
        </Point>
    </Placemark>
    <Placemark>
        <name>KIAD</name>
        <styleUrl>Non Schengen</styleUrl>
        <Point>
            <coordinates>N385642,W0772724</coordinates>
        </Point>
    </Placemark>
    <Placemark>
        <name>KJFK</name>
        <styleUrl>Non Schengen</styleUrl>
        <Point>
            <coordinates>N403825,W0734642</coordinates>
        </Point>
    </Placemark>
    <Placemark>
        <name>KMIA</name>
        <styleUrl>Non Schengen</styleUrl>
        <Point>
            <coordinates>N254800,W0801700</coordinates>
        </Point>
    </Placemark>
    <Placemark>
        <name>KPHL</name>
        <styleUrl>Non Schengen</styleUrl>
        <Point>
            <coordinates>N395212,W0751442</coordinates>
        </Point>
    </Placemark>
    <Placemark>
        <name>KUGN</name>
        <styleUrl>Non Schengen</styleUrl>
        <Point>
            <coordinates>N422518,W0875206</coordinates>
        </Point>
    </Placemark>
    <Placemark>
        <name>LBSF</name>
        <styleUrl>Non Schengen</styleUrl>
        <Point>
            <coordinates>N424142,E0232430</coordinates>
        </Point>
    </Placemark>
    <Placemark>
        <name>LCLK</name>
        <styleUrl>Schengen</styleUrl>
        <Point>
            <coordinates>N345244,E0333749</coordinates>
        </Point>
    </Placemark>
    <Placemark>
        <name>LDDU</name>
        <styleUrl>Non Schengen</styleUrl>
        <Point>
            <coordinates>N423341,E0181606</coordinates>
        </Point>
    </Placemark>
    <Placemark>
        <name>LDSP</name>
        <styleUrl>Non Schengen</styleUrl>
        <Point>
            <coordinates>N433220,E0161753</coordinates>
        </Point>
    </Placemark>
    <Placemark>
        <name>LDZA</name>
        <styleUrl>Non Schengen</styleUrl>
        <Point>
            <coordinates>N454435,E0160408</coordinates>
        </Point>
    </Placemark>
    <Placemark>
        <name>LEAL</name>
        <styleUrl>Schengen</styleUrl>
        <Point>
            <coordinates>N381656,W0003329</coordinates>
        </Point>
    </Placemark>
    <Placemark>
        <name>LEAM</name>
        <styleUrl>Schengen</styleUrl>
        <Point>
            <coordinates>N365038,W0022212</coordinates>
        </Point>
    </Placemark>
    <Placemark>
        <name>LEAS</name>
        <styleUrl>Schengen</styleUrl>
        <Point>
            <coordinates>N433349,W0060205</coordinates>
        </Point>
    </Placemark>
    <Placemark>
        <name>LEBB</name>
        <styleUrl>Schengen</styleUrl>
        <Point>
            <coordinates>N431804,W0025438</coordinates>
        </Point>
    </Placemark>
    <Placemark>
        <name>LEBL</name>
        <styleUrl>Schengen</styleUrl>
        <Point>
            <coordinates>N411749,E0020442</coordinates>
        </Point>
    </Placemark>
    <Placemark>
        <name>LEBZ</name>
        <styleUrl>Schengen</styleUrl>
        <Point>
            <coordinates>N385329,W0064917</coordinates>
        </Point>
    </Placemark>
    <Placemark>
        <name>LECO</name>
        <styleUrl>Schengen</styleUrl>
        <Point>
            <coordinates>N431807,W0082238</coordinates>
        </Point>
    </Placemark>
    <Placemark>
        <name>LEGE</name>
        <styleUrl>Schengen</styleUrl>
        <Point>
            <coordinates>N415403,E0024538</coordinates>
        </Point>
    </Placemark>
    <Placemark>
        <name>LEGR</name>
        <styleUrl>Schengen</styleUrl>
        <Point>
            <coordinates>N371119,W0034638</coordinates>
        </Point>
    </Placemark>
    <Placemark>
        <name>LEIB</name>
        <styleUrl>Schengen</styleUrl>
        <Point>
            <coordinates>N385222,E0012223</coordinates>
        </Point>
    </Placemark>
    <Placemark>
        <name>LEJR</name>
        <styleUrl>Schengen</styleUrl>
        <Point>
            <coordinates>N364441,W0060336</coordinates>
        </Point>
    </Placemark>
    <Placemark>
        <name>LELN</name>
        <styleUrl>Schengen</styleUrl>
        <Point>
            <coordinates>N423519,W0053922</coordinates>
        </Point>
    </Placemark>
    <Placemark>
        <name>LEMD</name>
        <styleUrl>Schengen</styleUrl>
        <Point>
            <coordinates>N402820,W0033339</coordinates>
        </Point>
    </Placemark>
    <Placemark>
        <name>LEMG</name>
        <styleUrl>Schengen</styleUrl>
        <Point>
            <coordinates>N364030,W0042957</coordinates>
        </Point>
    </Placemark>
    <Placemark>
        <name>LEMH</name>
        <styleUrl>Schengen</styleUrl>
        <Point>
            <coordinates>N395145,E0041307</coordinates>
        </Point>
    </Placemark>
    <Placemark>
        <name>LEPA</name>
        <styleUrl>Schengen</styleUrl>
        <Point>
            <coordinates>N393306,E0024420</coordinates>
        </Point>
    </Placemark>
    <Placemark>
        <name>LESO</name>
        <styleUrl>Schengen</styleUrl>
        <Point>
            <coordinates>N432123,W0014726</coordinates>
        </Point>
    </Placemark>
    <Placemark>
        <name>LEST</name>
        <styleUrl>Schengen</styleUrl>
        <Point>
            <coordinates>N425347,W0082455</coordinates>
        </Point>
    </Placemark>
    <Placemark>
        <name>LEVC</name>
        <styleUrl>Schengen</styleUrl>
        <Point>
            <coordinates>N392922,W0002854</coordinates>
        </Point>
    </Placemark>
    <Placemark>
        <name>LEVD</name>
        <styleUrl>Schengen</styleUrl>
        <Point>
            <coordinates>N414222,W0045107</coordinates>
        </Point>
    </Placemark>
    <Placemark>
        <name>LEVX</name>
        <styleUrl>Schengen</styleUrl>
        <Point>
            <coordinates>N421345,W0083739</coordinates>
        </Point>
    </Placemark>
    <Placemark>
        <name>LEXJ</name>
        <styleUrl>Schengen</styleUrl>
        <Point>
            <coordinates>N432537,W0034912</coordinates>
        </Point>
    </Placemark>
    <Placemark>
        <name>LEZL</name>
        <styleUrl>Schengen</styleUrl>
        <Point>
            <coordinates>N372505,W0055356</coordinates>
        </Point>
    </Placemark>
    <Placemark>
        <name>LFBD</name>
        <styleUrl>Schengen</styleUrl>
        <Point>
            <coordinates>N444943,W0004255</coordinates>
        </Point>
    </Placemark>
    <Placemark>
        <name>LFBT</name>
        <styleUrl>Schengen</styleUrl>
        <Point>
            <coordinates>N431108,W0000010</coordinates>
        </Point>
    </Placemark>
    <Placemark>
        <name>LFCK</name>
        <styleUrl>Schengen</styleUrl>
        <Point>
            <coordinates>N433318,E0021726</coordinates>
        </Point>
    </Placemark>
    <Placemark>
        <name>LFLL</name>
        <styleUrl>Schengen</styleUrl>
        <Point>
            <coordinates>N454332,E0050452</coordinates>
        </Point>
    </Placemark>
    <Placemark>
        <name>LFMD</name>
        <styleUrl>Schengen</styleUrl>
        <Point>
            <coordinates>N433247,E0065715</coordinates>
        </Point>
    </Placemark>
    <Placemark>
        <name>LFML</name>
        <styleUrl>Schengen</styleUrl>
        <Point>
            <coordinates>N432612,E0051254</coordinates>
        </Point>
    </Placemark>
    <Placemark>
        <name>LFMN</name>
        <styleUrl>Schengen</styleUrl>
        <Point>
            <coordinates>N433955,E0071254</coordinates>
        </Point>
    </Placemark>
    <Placemark>
        <name>LFOB</name>
        <styleUrl>Schengen</styleUrl>
        <Point>
            <coordinates>N492716,E0020646</coordinates>
        </Point>
    </Placemark>
    <Placemark>
        <name>LFPG</name>
        <styleUrl>Schengen</styleUrl>
        <Point>
            <coordinates>N490035,E0023252</coordinates>
        </Point>
    </Placemark>
    <Placemark>
        <name>LFPO</name>
        <styleUrl>Schengen</styleUrl>
        <Point>
            <coordinates>N484324,E0022246</coordinates>
        </Point>
    </Placemark>
    <Placemark>
        <name>LFQQ</name>
        <styleUrl>Schengen</styleUrl>
        <Point>
            <coordinates>N503348,E0030513</coordinates>
        </Point>
    </Placemark>
    <Placemark>
        <name>LFRN</name>
        <styleUrl>Schengen</styleUrl>
        <Point>
            <coordinates>N480419,W0014356</coordinates>
        </Point>
    </Placemark>
    <Placemark>
        <name>LFRS</name>
        <styleUrl>Schengen</styleUrl>
        <Point>
            <coordinates>N470925,W0013628</coordinates>
        </Point>
    </Placemark>
    <Placemark>
        <name>LFSB</name>
        <styleUrl>Schengen</styleUrl>
        <Point>
            <coordinates>N473524,E0073145</coordinates>
        </Point>
    </Placemark>
    <Placemark>
        <name>LFST</name>
        <styleUrl>Schengen</styleUrl>
        <Point>
            <coordinates>N483231,E0073804</coordinates>
        </Point>
    </Placemark>
    <Placemark>
        <name>LGAV</name>
        <styleUrl>Schengen</styleUrl>
        <Point>
            <coordinates>N375612,E0235640</coordinates>
        </Point>
    </Placemark>
    <Placemark>
        <name>LGIR</name>
        <styleUrl>Schengen</styleUrl>
        <Point>
            <coordinates>N352023,E0251049</coordinates>
        </Point>
    </Placemark>
    <Placemark>
        <name>LGKR</name>
        <styleUrl>Schengen</styleUrl>
        <Point>
            <coordinates>N393607,E0195444</coordinates>
        </Point>
    </Placemark>
    <Placemark>
        <name>LGMK</name>
        <styleUrl>Schengen</styleUrl>
        <Point>
            <coordinates>N372614,E0252050</coordinates>
        </Point>
    </Placemark>
    <Placemark>
        <name>LGSR</name>
        <styleUrl>Schengen</styleUrl>
        <Point>
            <coordinates>N362357,E0252845</coordinates>
        </Point>
    </Placemark>
    <Placemark>
        <name>LGTS</name>
        <styleUrl>Schengen</styleUrl>
        <Point>
            <coordinates>N403111,E0225815</coordinates>
        </Point>
    </Placemark>
    <Placemark>
        <name>LHBP</name>
        <styleUrl>Schengen</styleUrl>
        <Point>
            <coordinates>N472622,E0191543</coordinates>
        </Point>
    </Placemark>
    <Placemark>
        <name>LIBD</name>
        <styleUrl>Schengen</styleUrl>
        <Point>
            <coordinates>N410817,E0164554</coordinates>
        </Point>
    </Placemark>
    <Placemark>
        <name>LICJ</name>
        <styleUrl>Schengen</styleUrl>
        <Point>
            <coordinates>N381055,E0130558</coordinates>
        </Point>
    </Placemark>
    <Placemark>
        <name>LIEE</name>
        <styleUrl>Schengen</styleUrl>
        <Point>
            <coordinates>N391450,E0090322</coordinates>
        </Point>
    </Placemark>
    <Placemark>
        <name>LIEO</name>
        <styleUrl>Schengen</styleUrl>
        <Point>
            <coordinates>N405355,E0093104</coordinates>
        </Point>
    </Placemark>
    <Placemark>
        <name>LIMC</name>
        <styleUrl>Schengen</styleUrl>
        <Point>
            <coordinates>N453748,E0084323</coordinates>
        </Point>
    </Placemark>
    <Placemark>
        <name>LIME</name>
        <styleUrl>Schengen</styleUrl>
        <Point>
            <coordinates>N454008,E0094201</coordinates>
        </Point>
    </Placemark>
    <Placemark>
        <name>LIMF</name>
        <styleUrl>Schengen</styleUrl>
        <Point>
            <coordinates>N451209,E0073858</coordinates>
        </Point>
    </Placemark>
    <Placemark>
        <name>LIML</name>
        <styleUrl>Schengen</styleUrl>
        <Point>
            <coordinates>N452658,E0091642</coordinates>
        </Point>
    </Placemark>
    <Placemark>
        <name>LIPE</name>
        <styleUrl>Schengen</styleUrl>
        <Point>
            <coordinates>N443151,E0111749</coordinates>
        </Point>
    </Placemark>
    <Placemark>
        <name>LIPH</name>
        <styleUrl>Schengen</styleUrl>
        <Point>
            <coordinates>N453903,E0121152</coordinates>
        </Point>
    </Placemark>
    <Placemark>
        <name>LIPX</name>
        <styleUrl>Schengen</styleUrl>
        <Point>
            <coordinates>N452347,E0105316</coordinates>
        </Point>
    </Placemark>
    <Placemark>
        <name>LIPZ</name>
        <styleUrl>Schengen</styleUrl>
        <Point>
            <coordinates>N453019,E0122107</coordinates>
        </Point>
    </Placemark>
    <Placemark>
        <name>LIRF</name>
        <styleUrl>Schengen</styleUrl>
        <Point>
            <coordinates>N414801,E0121420</coordinates>
        </Point>
    </Placemark>
    <Placemark>
        <name>LIRN</name>
        <styleUrl>Schengen</styleUrl>
        <Point>
            <coordinates>N405304,E0141727</coordinates>
        </Point>
    </Placemark>
    <Placemark>
        <name>LIRP</name>
        <styleUrl>Schengen</styleUrl>
        <Point>
            <coordinates>N434058,E0102344</coordinates>
        </Point>
    </Placemark>
    <Placemark>
        <name>LIRQ</name>
        <styleUrl>Schengen</styleUrl>
        <Point>
            <coordinates>N434831,E0111210</coordinates>
        </Point>
    </Placemark>
    <Placemark>
        <name>LKPR</name>
        <styleUrl>Schengen</styleUrl>
        <Point>
            <coordinates>N500603,E0141536</coordinates>
        </Point>
    </Placemark>
    <Placemark>
        <name>LLBG</name>
        <styleUrl>Non Schengen</styleUrl>
        <Point>
            <coordinates>N320034,E0345308</coordinates>
        </Point>
    </Placemark>
    <Placemark>
        <name>LMML</name>
        <styleUrl>Schengen</styleUrl>
        <Point>
            <coordinates>N355127,E0142839</coordinates>
        </Point>
    </Placemark>
    <Placemark>
        <name>LOWW</name>
        <styleUrl>Schengen</styleUrl>
        <Point>
            <coordinates>N480637,E0163411</coordinates>
        </Point>
    </Placemark>
    <Placemark>
        <name>LPPR</name>
        <styleUrl>Schengen</styleUrl>
        <Point>
            <coordinates>N411408,W0084041</coordinates>
        </Point>
    </Placemark>
    <Placemark>
        <name>LPPT</name>
        <styleUrl>Schengen</styleUrl>
        <Point>
            <coordinates>N384627,W0090803</coordinates>
        </Point>
    </Placemark>
    <Placemark>
        <name>LRCL</name>
        <styleUrl>Non Schengen</styleUrl>
        <Point>
            <coordinates>N464721,E0234132</coordinates>
        </Point>
    </Placemark>
    <Placemark>
        <name>LROP</name>
        <styleUrl>Non Schengen</styleUrl>
        <Point>
            <coordinates>N443416,E0260506</coordinates>
        </Point>
    </Placemark>
    <Placemark>
        <name>LSGG</name>
        <styleUrl>Schengen</styleUrl>
        <Point>
            <coordinates>N461418,E0060634</coordinates>
        </Point>
    </Placemark>
    <Placemark>
        <name>LSZG</name>
        <styleUrl>Schengen</styleUrl>
        <Point>
            <coordinates>N471053,E0072459</coordinates>
        </Point>
    </Placemark>
    <Placemark>
        <name>LSZH</name>
        <styleUrl>Schengen</styleUrl>
        <Point>
            <coordinates>N472729,E0083253</coordinates>
        </Point>
    </Placemark>
    <Placemark>
        <name>LTBA</name>
        <styleUrl>Non Schengen</styleUrl>
        <Point>
            <coordinates>N405834,E0284851</coordinates>
        </Point>
    </Placemark>
    <Placemark>
        <name>LTFJ</name>
        <styleUrl>Non Schengen</styleUrl>
        <Point>
            <coordinates>N405354,E0291833</coordinates>
        </Point>
    </Placemark>
    <Placemark>
        <name>LUKK</name>
        <styleUrl>Non Schengen</styleUrl>
        <Point>
            <coordinates>N465540,E0285551</coordinates>
        </Point>
    </Placemark>
    <Placemark>
        <name>LWSK</name>
        <styleUrl>Non Schengen</styleUrl>
        <Point>
            <coordinates>N415742,E0213717</coordinates>
        </Point>
    </Placemark>
    <Placemark>
        <name>LYBE</name>
        <styleUrl>Non Schengen</styleUrl>
        <Point>
            <coordinates>N444910,E0201825</coordinates>
        </Point>
    </Placemark>
    <Placemark>
        <name>LYTV</name>
        <styleUrl>Non Schengen</styleUrl>
        <Point>
            <coordinates>N422417,E0184324</coordinates>
        </Point>
    </Placemark>
    <Placemark>
        <name>OLBA</name>
        <styleUrl>Non Schengen</styleUrl>
        <Point>
            <coordinates>N334909,E0352924</coordinates>
        </Point>
    </Placemark>
    <Placemark>
        <name>OMAA</name>
        <styleUrl>Non Schengen</styleUrl>
        <Point>
            <coordinates>N242600,E0543900</coordinates>
        </Point>
    </Placemark>
    <Placemark>
        <name>OMDB</name>
        <styleUrl>Non Schengen</styleUrl>
        <Point>
            <coordinates>N251457,E0552136</coordinates>
        </Point>
    </Placemark>
    <Placemark>
        <name>OTHH</name>
        <styleUrl>Non Schengen</styleUrl>
        <Point>
            <coordinates>N251628,E0513630</coordinates>
        </Point>
    </Placemark>
    <Placemark>
        <name>SAEZ</name>
        <styleUrl>Non Schengen</styleUrl>
        <Point>
            <coordinates>S344920,W0583209</coordinates>
        </Point>
    </Placemark>
    <Placemark>
        <name>SBGR</name>
        <styleUrl>Non Schengen</styleUrl>
        <Point>
            <coordinates>S232600,W0462812</coordinates>
        </Point>
    </Placemark>
    <Placemark>
        <name>SKBO</name>
        <styleUrl>Non Schengen</styleUrl>
        <Point>
            <coordinates>N044200,W0740900</coordinates>
        </Point>
    </Placemark>
    <Placemark>
        <name>UKBB</name>
        <styleUrl>Non Schengen</styleUrl>
        <Point>
            <coordinates>N502041,E0305336</coordinates>
        </Point>
    </Placemark>
    <Placemark>
        <name>UKKK</name>
        <styleUrl>Non Schengen</styleUrl>
        <Point>
            <coordinates>N502407,E0302707</coordinates>
        </Point>
    </Placemark>
    <Placemark>
        <name>ULLI</name>
        <styleUrl>Non Schengen</styleUrl>
        <Point>
            <coordinates>N594801,E0301545</coordinates>
        </Point>
    </Placemark>
    <Placemark>
        <name>URKK</name>
        <styleUrl>Non Schengen</styleUrl>
        <Point>
            <coordinates>N450205,E0391012</coordinates>
        </Point>
    </Placemark>
    <Placemark>
        <name>UUDD</name>
        <styleUrl>Non Schengen</styleUrl>
        <Point>
            <coordinates>N552431,E0375423</coordinates>
        </Point>
    </Placemark>
    <Placemark>
        <name>UUEE</name>
        <styleUrl>Non Schengen</styleUrl>
        <Point>
            <coordinates>N555821,E0372447</coordinates>
        </Point>
    </Placemark>
    <Placemark>
        <name>UWKD</name>
        <styleUrl>Non Schengen</styleUrl>
        <Point>
            <coordinates>N553625,E0491649</coordinates>
        </Point>
    </Placemark>
    <Placemark>
        <name>WSSS</name>
        <styleUrl>Non Schengen</styleUrl>
        <Point>
            <coordinates>N012133,E1035921</coordinates>
        </Point>
    </Placemark>
</Document>
</kml>