<?xml version="1.0" encoding="UTF-8"?>
<kml xmlns="http://www.opengis.net/kml/2.2">
<Document>
    <Style id="Schengen">
        <LineStyle>
            <color>ff00ff00</color>
            <width>3</width>
            <colorMode>normal</colorMode>
        </LineStyle>
    </Style>
    <Style id="Non Schengen">
        <LineStyle>
            <color>ff0000ff</color>
            <width>3</width>
            <colorMode>normal</colorMode>
        </LineStyle>
    </Style>
    <Placemark>
        <name>Route GCLP - LEBL</name>
        <styleUrl>#Schengen</styleUrl>
        <LineString>
            <altitudeMode>clampToGround</altitudeMode>
            <extrude>1</extrude>
            <tessellate>1</tessellate>
            <coordinates>
                -15.38667,27.93194
                2.07833,41.29694
            </coordinates>
        </LineString>
    </Placemark>
    <Placemark>
        <name>Route LDZA - LEBL</name>
        <styleUrl>#Non Schengen</styleUrl>
        <LineString>
            <altitudeMode>clampToGround</altitudeMode>
            <extrude>1</extrude>
            <tessellate>1</tessellate>
            <coordinates>
                16.06889,45.74306
                2.07833,41.29694
            </coordinates>
        </LineString>
    </Placemark>
    <Placemark>
        <name>Route GMMN - LEBL</name>
        <styleUrl>#Non Schengen</styleUrl>
        <LineString>
            <altitudeMode>clampToGround</altitudeMode>
            <extrude>1</extrude>
            <tessellate>1</tessellate>
            <coordinates>
                -7.58167,33.36417
                2.07833,41.29694
            </coordinates>
        </LineString>
    </Placemark>
    <Placemark>
        <name>Route LDSP - LEBL</name>
        <styleUrl>#Non Schengen</styleUrl>
        <LineString>
            <altitudeMode>clampToGround</altitudeMode>
            <extrude>1</extrude>
            <tessellate>1</tessellate>
            <coordinates>
                16.29806,43.53889
                2.07833,41.29694
            </coordinates>
        </LineString>
    </Placemark>
    <Placemark>
        <name>Route ENBR - LEBL</name>
        <styleUrl>#Schengen</styleUrl>
        <LineString>
            <altitudeMode>clampToGround</altitudeMode>
            <extrude>1</extrude>
            <tessellate>1</tessellate>
            <coordinates>
                5.21806,60.29361
                2.07833,41.29694
            </coordinates>
        </LineString>
    </Placemark>
    <Placemark>
        <name>Route LFRS - LEBL</name>
        <styleUrl>#Schengen</styleUrl>
        <LineString>
            <altitudeMode>clampToGround</altitudeMode>
            <extrude>1</extrude>
            <tessellate>1</tessellate>
            <coordinates>
                -1.60778,47.15694
                2.07833,41.29694
            </coordinates>
        </LineString>
    </Placemark>
    <Placemark>
        <name>Route EDDP - LEBL</name>
        <styleUrl>#Schengen</styleUrl>
        <LineString>
            <altitudeMode>clampToGround</altitudeMode>
            <extrude>1</extrude>
            <tessellate>1</tessellate>
            <coordinates>
                12.23639,51.42389
                2.07833,41.29694
            </coordinates>
        </LineString>
    </Placemark>
    <Placemark>
        <name>Route LEMH - LEBL</name>
        <styleUrl>#Schengen</styleUrl>
        <LineString>
            <altitudeMode>clampToGround</altitudeMode>
            <extrude>1</extrude>
            <tessellate>1</tessellate>
            <coordinates>
                4.21861,39.8625
                2.07833,41.29694
            </coordinates>
        </LineString>
    </Placemark>
    <Placemark>
        <name>Route OTHH - LEBL</name>
        <styleUrl>#Non Schengen</styleUrl>
        <LineString>
            <altitudeMode>clampToGround</altitudeMode>
            <extrude>1</extrude>
            <tessellate>1</tessellate>
            <coordinates>
                51.60833,25.27444
                2.07833,41.29694
            </coordinates>
        </LineString>
    </Placemark>
    <Placemark>
        <name>Route KPHL - LEBL</name>
        <styleUrl>#Non Schengen</styleUrl>
        <LineString>
            <altitudeMode>clampToGround</altitudeMode>
            <extrude>1</extrude>
            <tessellate>1</tessellate>
            <coordinates>
                -75.245,39.87
                2.07833,41.29694
            </coordinates>
        </LineString>
    </Placemark>
    <Placemark>
        <name>Route LWSK - LEBL</name>
        <styleUrl>#Non Schengen</styleUrl>
        <LineString>
            <altitudeMode>clampToGround</altitudeMode>
            <extrude>1</extrude>
            <tessellate>1</tessellate>
            <coordinates>
                21.62139,41.96167
                2.07833,41.29694
            </coordinates>
        </LineString>
    </Placemark>
    <Placemark>
        <name>Route EGAA - LEBL</name>
        <styleUrl>#Non Schengen</styleUrl>
        <LineString>
            <altitudeMode>clampToGround</altitudeMode>
            <extrude>1</extrude>
            <tessellate>1</tessellate>
            <coordinates>
                -6.21583,54.6575
                2.07833,41.29694
            </coordinates>
        </LineString>
    </Placemark>
    <Placemark>
        <name>Route LIEE - LEBL</name>
        <styleUrl>#Schengen</styleUrl>
        <LineString>
            <altitudeMode>clampToGround</altitudeMode>
            <extrude>1</extrude>
            <tessellate>1</tessellate>
            <coordinates>
                9.05611,39.24722
                2.07833,41.29694
            </coordinates>
        </LineString>
    </Placemark>
    <Placemark>
        <name>Route LIPH - LEBL</name>
        <styleUrl>#Schengen</styleUrl>
        <LineString>
            <altitudeMode>clampToGround</altitudeMode>
            <extrude>1</extrude>
            <tessellate>1</tessellate>
            <coordinates>
                12.19778,45.65083
                2.07833,41.29694
            </coordinates>
        </LineString>
    </Placemark>
    <Placemark>
        <name>Route HTDA - LEBL</name>
        <styleUrl>#Non Schengen</styleUrl>
        <LineString>
            <altitudeMode>clampToGround</altitudeMode>
            <extrude>1</extrude>
            <tessellate>1</tessellate>
            <coordinates>
                39.20333,-6.87556
                2.07833,41.29694
            </coordinates>
        </LineString>
    </Placemark>
    <Placemark>
        <name>Route LIMF - LEBL</name>
        <styleUrl>#Schengen</styleUrl>
        <LineString>
            <altitudeMode>clampToGround</altitudeMode>
            <extrude>1</extrude>
            <tessellate>1</tessellate>
            <coordinates>
                7.64944,45.2025
                2.07833,41.29694
            </coordinates>
        </LineString>
    </Placemark>
    <Placemark>
        <name>Route LECO - LEBL</name>
        <styleUrl>#Schengen</styleUrl>
        <LineString>
            <altitudeMode>clampToGround</altitudeMode>
            <extrude>1</extrude>
            <tessellate>1</tessellate>
            <coordinates>
                -8.37722,43.30194
                2.07833,41.29694
            </coordinates>
        </LineString>
    </Placemark>
    <Placemark>
        <name>Route LYTV - LEBL</name>
        <styleUrl>#Non Schengen</styleUrl>
        <LineString>
            <altitudeMode>clampToGround</altitudeMode>
            <extrude>1</extrude>
            <tessellate>1</tessellate>
            <coordinates>
                18.72333,42.40472
                2.07833,41.29694
            </coordinates>
        </LineString>
    </Placemark>
    <Placemark>
        <name>Route CYYZ - LEBL</name>
        <styleUrl>#Non Schengen</styleUrl>
        <LineString>
            <altitudeMode>clampToGround</altitudeMode>
            <extrude>1</extrude>
            <tessellate>1</tessellate>
            <coordinates>
                -79.63056,43.67722
                2.07833,41.29694
            </coordinates>
        </LineString>
    </Placemark>
    <Placemark>
        <name>Route LSZG - LEBL</name>
        <styleUrl>#Schengen</styleUrl>
        <LineString>
            <altitudeMode>clampToGround</altitudeMode>
            <extrude>1</extrude>
            <tessellate>1</tessellate>
            <coordinates>
                7.41639,47.18139
                2.07833,41.29694
            </coordinates>
        </LineString>
    </Placemark>
    <Placemark>
        <name>Route UWKD - LEBL</name>
        <styleUrl>#Non Schengen</styleUrl>
        <LineString>
            <altitudeMode>clampToGround</altitudeMode>
            <extrude>1</extrude>
            <tessellate>1</tessellate>
            <coordinates>
                49.28028,55.60694
                2.07833,41.29694
            </coordinates>
        </LineString>
    </Placemark>
    <Placemark>
        <name>Route LFML - LEBL</name>
        <styleUrl>#Schengen</styleUrl>
        <LineString>
            <altitudeMode>clampToGround</altitudeMode>
            <extrude>1</extrude>
            <tessellate>1</tessellate>
            <coordinates>
                5.215,43.43667
                2.07833,41.29694
            </coordinates>
        </LineString>
    </Placemark>
    <Placemark>
        <name>Route EGNM - LEBL</name>
        <styleUrl>#Non Schengen</styleUrl>
        <LineString>
            <altitudeMode>clampToGround</altitudeMode>
            <extrude>1</extrude>
            <tessellate>1</tessellate>
            <coordinates>
                -1.66083,53.86611
                2.07833,41.29694
            </coordinates>
        </LineString>
    </Placemark>
    <Placemark>
        <name>Route EGNX - LEBL</name>
        <styleUrl>#Non Schengen</styleUrl>
        <LineString>
            <altitudeMode>clampToGround</altitudeMode>
            <extrude>1</extrude>
            <tessellate>1</tessellate>
            <coordinates>
                -1.32778,52.83111
                2.07833,41.29694
            </coordinates>
        </LineString>
    </Placemark>
    <Placemark>
        <name>Route KATL - LEBL</name>
        <styleUrl>#Non Schengen</styleUrl>
        <LineString>
            <altitudeMode>clampToGround</altitudeMode>
            <extrude>1</extrude>
            <tessellate>1</tessellate>
            <coordinates>
                -84.43333,33.63333
                2.07833,41.29694
            </coordinates>
        </LineString>
    </Placemark>
    <Placemark>
        <name>Route EGPH - LEBL</name>
        <styleUrl>#Non Schengen</styleUrl>
        <LineString>
            <altitudeMode>clampToGround</altitudeMode>
            <extrude>1</extrude>
            <tessellate>1</tessellate>
            <coordinates>
                -3.3725,55.95
                2.07833,41.29694
            </coordinates>
        </LineString>
    </Placemark>
    <Placemark>
        <name>Route LEZL - LEBL</name>
        <styleUrl>#Schengen</styleUrl>
        <LineString>
            <altitudeMode>clampToGround</altitudeMode>
            <extrude>1</extrude>
            <tessellate>1</tessellate>
            <coordinates>
                -5.89889,37.41806
                2.07833,41.29694
            </coordinates>
        </LineString>
    </Placemark>
    <Placemark>
        <name>Route EGGD - LEBL</name>
        <styleUrl>#Non Schengen</styleUrl>
        <LineString>
            <altitudeMode>clampToGround</altitudeMode>
            <extrude>1</extrude>
            <tessellate>1</tessellate>
            <coordinates>
                -2.71917,51.38278
                2.07833,41.29694
            </coordinates>
        </LineString>
    </Placemark>
    <Placemark>
        <name>Route LKPR - LEBL</name>
        <styleUrl>#Schengen</styleUrl>
        <LineString>
            <altitudeMode>clampToGround</altitudeMode>
            <extrude>1</extrude>
            <tessellate>1</tessellate>
            <coordinates>
                14.26,50.10083
                2.07833,41.29694
            </coordinates>
        </LineString>
    </Placemark>
    <Placemark>
        <name>Route LGMK - LEBL</name>
        <styleUrl>#Schengen</styleUrl>
        <LineString>
            <altitudeMode>clampToGround</altitudeMode>
            <extrude>1</extrude>
            <tessellate>1</tessellate>
            <coordinates>
                25.34722,37.43722
                2.07833,41.29694
            </coordinates>
        </LineString>
    </Placemark>
    <Placemark>
        <name>Route EGGP - LEBL</name>
        <styleUrl>#Non Schengen</styleUrl>
        <LineString>
            <altitudeMode>clampToGround</altitudeMode>
            <extrude>1</extrude>
            <tessellate>1</tessellate>
            <coordinates>
                -2.84972,53.33361
                2.07833,41.29694
            </coordinates>
        </LineString>
    </Placemark>
    <Placemark>
        <name>Route LEST - LEBL</name>
        <styleUrl>#Schengen</styleUrl>
        <LineString>
            <altitudeMode>clampToGround</altitudeMode>
            <extrude>1</extrude>
            <tessellate>1</tessellate>
            <coordinates>
                -8.41528,42.89639
                2.07833,41.29694
            </coordinates>
        </LineString>
    </Placemark>
    <Placemark>
        <name>Route LDDU - LEBL</name>
        <styleUrl>#Non Schengen</styleUrl>
        <LineString>
            <altitudeMode>clampToGround</altitudeMode>
            <extrude>1</extrude>
            <tessellate>1</tessellate>
            <coordinates>
                18.26833,42.56139
                2.07833,41.29694
            </coordinates>
        </LineString>
    </Placemark>
    <Placemark>
        <name>Route URKK - LEBL</name>
        <styleUrl>#Non Schengen</styleUrl>
        <LineString>
            <altitudeMode>clampToGround</altitudeMode>
            <extrude>1</extrude>
            <tessellate>1</tessellate>
            <coordinates>
                39.17,45.03472
                2.07833,41.29694
            </coordinates>
        </LineString>
    </Placemark>
    <Placemark>
        <name>Route BIKF - LEBL</name>
        <styleUrl>#Schengen</styleUrl>
        <LineString>
            <altitudeMode>clampToGround</altitudeMode>
            <extrude>1</extrude>
            <tessellate>1</tessellate>
            <coordinates>
                -22.60556,63.985
                2.07833,41.29694
            </coordinates>
        </LineString>
    </Placemark>
    <Placemark>
        <name>Route LMML - LEBL</name>
        <styleUrl>#Schengen</styleUrl>
        <LineString>
            <altitudeMode>clampToGround</altitudeMode>
            <extrude>1</extrude>
            <tessellate>1</tessellate>
            <coordinates>
                14.4775,35.8575
                2.07833,41.29694
            </coordinates>
        </LineString>
    </Placemark>
    <Placemark>
        <name>Route LFCK - LEBL</name>
        <styleUrl>#Schengen</styleUrl>
        <LineString>
            <altitudeMode>clampToGround</altitudeMode>
            <extrude>1</extrude>
            <tessellate>1</tessellate>
            <coordinates>
                2.29056,43.555
                2.07833,41.29694
            </coordinates>
        </LineString>
    </Placemark>
    <Placemark>
        <name>Route LIRQ - LEBL</name>
        <styleUrl>#Schengen</styleUrl>
        <LineString>
            <altitudeMode>clampToGround</altitudeMode>
            <extrude>1</extrude>
            <tessellate>1</tessellate>
            <coordinates>
                11.20278,43.80861
                2.07833,41.29694
            </coordinates>
        </LineString>
    </Placemark>
    <Placemark>
        <name>Route ENGM - LEBL</name>
        <styleUrl>#Schengen</styleUrl>
        <LineString>
            <altitudeMode>clampToGround</altitudeMode>
            <extrude>1</extrude>
            <tessellate>1</tessellate>
            <coordinates>
                11.08389,60.20278
                2.07833,41.29694
            </coordinates>
        </LineString>
    </Placemark>
    <Placemark>
        <name>Route EDDH - LEBL</name>
        <styleUrl>#Schengen</styleUrl>
        <LineString>
            <altitudeMode>clampToGround</altitudeMode>
            <extrude>1</extrude>
            <tessellate>1</tessellate>
            <coordinates>
                9.98833,53.63028
                2.07833,41.29694
            </coordinates>
        </LineString>
    </Placemark>
    <Placemark>
        <name>Route LEJR - LEBL</name>
        <styleUrl>#Schengen</styleUrl>
        <LineString>
            <altitudeMode>clampToGround</altitudeMode>
            <extrude>1</extrude>
            <tessellate>1</tessellate>
            <coordinates>
                -6.06,36.74472
                2.07833,41.29694
            </coordinates>
        </LineString>
    </Placemark>
    <Placemark>
        <name>Route LICJ - LEBL</name>
        <styleUrl>#Schengen</styleUrl>
        <LineString>
            <altitudeMode>clampToGround</altitudeMode>
            <extrude>1</extrude>
            <tessellate>1</tessellate>
            <coordinates>
                13.09944,38.18194
                2.07833,41.29694
            </coordinates>
        </LineString>
    </Placemark>
    <Placemark>
        <name>Route LIPZ - LEBL</name>
        <styleUrl>#Schengen</styleUrl>
        <LineString>
            <altitudeMode>clampToGround</altitudeMode>
            <extrude>1</extrude>
            <tessellate>1</tessellate>
            <coordinates>
                12.35194,45.50528
                2.07833,41.29694
            </coordinates>
        </LineString>
    </Placemark>
    <Placemark>
        <name>Route LIEO - LEBL</name>
        <styleUrl>#Schengen</styleUrl>
        <LineString>
            <altitudeMode>clampToGround</altitudeMode>
            <extrude>1</extrude>
            <tessellate>1</tessellate>
            <coordinates>
                9.51778,40.89861
                2.07833,41.29694
            </coordinates>
        </LineString>
    </Placemark>
    <Placemark>
        <name>Route EBBR - LEBL</name>
        <styleUrl>#Schengen</styleUrl>
        <LineString>
            <altitudeMode>clampToGround</altitudeMode>
            <extrude>1</extrude>
            <tessellate>1</tessellate>
            <coordinates>
                4.48444,50.90139
                2.07833,41.29694
            </coordinates>
        </LineString>
    </Placemark>
    <Placemark>
        <name>Route LEAM - LEBL</name>
        <styleUrl>#Schengen</styleUrl>
        <LineString>
            <altitudeMode>clampToGround</altitudeMode>
            <extrude>1</extrude>
            <tessellate>1</tessellate>
            <coordinates>
                -2.37,36.84389
                2.07833,41.29694
            </coordinates>
        </LineString>
    </Placemark>
    <Placemark>
        <name>Route EGSS - LEBL</name>
        <styleUrl>#Non Schengen</styleUrl>
        <LineString>
            <altitudeMode>clampToGround</altitudeMode>
            <extrude>1</extrude>
            <tessellate>1</tessellate>
            <coordinates>
                0.235,51.885
                2.07833,41.29694
            </coordinates>
        </LineString>
    </Placemark>
    <Placemark>
        <name>Route LPPT - LEBL</name>
        <styleUrl>#Schengen</styleUrl>
        <LineString>
            <altitudeMode>clampToGround</altitudeMode>
            <extrude>1</extrude>
            <tessellate>1</tessellate>
            <coordinates>
                -9.13417,38.77417
                2.07833,41.29694
            </coordinates>
        </LineString>
    </Placemark>
    <Placemark>
        <name>Route KMIA - LEBL</name>
        <styleUrl>#Non Schengen</styleUrl>
        <LineString>
            <altitudeMode>clampToGround</altitudeMode>
            <extrude>1</extrude>
            <tessellate>1</tessellate>
            <coordinates>
                -80.28333,25.8
                2.07833,41.29694
            </coordinates>
        </LineString>
    </Placemark>
    <Placemark>
        <name>Route LFPO - LEBL</name>
        <styleUrl>#Schengen</styleUrl>
        <LineString>
            <altitudeMode>clampToGround</altitudeMode>
            <extrude>1</extrude>
            <tessellate>1</tessellate>
            <coordinates>
                2.37944,48.72333
                2.07833,41.29694
            </coordinates>
        </LineString>
    </Placemark>
    <Placemark>
        <name>Route LIRN - LEBL</name>
        <styleUrl>#Schengen</styleUrl>
        <LineString>
            <altitudeMode>clampToGround</altitudeMode>
            <extrude>1</extrude>
            <tessellate>1</tessellate>
            <coordinates>
                14.29083,40.88444
                2.07833,41.29694
            </coordinates>
        </LineString>
    </Placemark>
    <Placemark>
        <name>Route LSGG - LEBL</name>
        <styleUrl>#Schengen</styleUrl>
        <LineString>
            <altitudeMode>clampToGround</altitudeMode>
            <extrude>1</extrude>
            <tessellate>1</tessellate>
            <coordinates>
                6.10944,46.23833
                2.07833,41.29694
            </coordinates>
        </LineString>
    </Placemark>
    <Placemark>
        <name>Route LUKK - LEBL</name>
        <styleUrl>#Non Schengen</styleUrl>
        <LineString>
            <altitudeMode>clampToGround</altitudeMode>
            <extrude>1</extrude>
            <tessellate>1</tessellate>
            <coordinates>
                28.93083,46.92778
                2.07833,41.29694
            </coordinates>
        </LineString>
    </Placemark>
    <Placemark>
        <name>Route EGMC - LEBL</name>
        <styleUrl>#Non Schengen</styleUrl>
        <LineString>
            <altitudeMode>clampToGround</altitudeMode>
            <extrude>1</extrude>
            <tessellate>1</tessellate>
            <coordinates>
                0.69333,51.57028
                2.07833,41.29694
            </coordinates>
        </LineString>
    </Placemark>
    <Placemark>
        <name>Route LESO - LEBL</name>
        <styleUrl>#Schengen</styleUrl>
        <LineString>
            <altitudeMode>clampToGround</altitudeMode>
            <extrude>1</extrude>
            <tessellate>1</tessellate>
            <coordinates>
                -1.79056,43.35639
                2.07833,41.29694
            </coordinates>
        </LineString>
    </Placemark>
    <Placemark>
        <name>Route EDDL - LEBL</name>
        <styleUrl>#Schengen</styleUrl>
        <LineString>
            <altitudeMode>clampToGround</altitudeMode>
            <extrude>1</extrude>
            <tessellate>1</tessellate>
            <coordinates>
                6.75722,51.28083
                2.07833,41.29694
            </coordinates>
        </LineString>
    </Placemark>
    <Placemark>
        <name>Route LGSR - LEBL</name>
        <styleUrl>#Schengen</styleUrl>
        <LineString>
            <altitudeMode>clampToGround</altitudeMode>
            <extrude>1</extrude>
            <tessellate>1</tessellate>
            <coordinates>
                25.47917,36.39917
                2.07833,41.29694
            </coordinates>
        </LineString>
    </Placemark>
    <Placemark>
        <name>Route UUDD - LEBL</name>
        <styleUrl>#Non Schengen</styleUrl>
        <LineString>
            <altitudeMode>clampToGround</altitudeMode>
            <extrude>1</extrude>
            <tessellate>1</tessellate>
            <coordinates>
                37.90639,55.40861
                2.07833,41.29694
            </coordinates>
        </LineString>
    </Placemark>
    <Placemark>
        <name>Route LSZH - LEBL</name>
        <styleUrl>#Schengen</styleUrl>
        <LineString>
            <altitudeMode>clampToGround</altitudeMode>
            <extrude>1</extrude>
            <tessellate>1</tessellate>
            <coordinates>
                8.54806,47.45806
                2.07833,41.29694
            </coordinates>
        </LineString>
    </Placemark>
    <Placemark>
        <name>Route EDDF - LEBL</name>
        <styleUrl>#Schengen</styleUrl>
        <LineString>
            <altitudeMode>clampToGround</altitudeMode>
            <extrude>1</extrude>
            <tessellate>1</tessellate>
            <coordinates>
                8.57056,50.03333
                2.07833,41.29694
            </coordinates>
        </LineString>
    </Placemark>
    <Placemark>
        <name>Route EGKK - LEBL</name>
        <styleUrl>#Non Schengen</styleUrl>
        <LineString>
            <altitudeMode>clampToGround</altitudeMode>
            <extrude>1</extrude>
            <tessellate>1</tessellate>
            <coordinates>
                -0.19028,51.14806
                2.07833,41.29694
            </coordinates>
        </LineString>
    </Placemark>
    <Placemark>
        <name>Route ULLI - LEBL</name>
        <styleUrl>#Non Schengen</styleUrl>
        <LineString>
            <altitudeMode>clampToGround</altitudeMode>
            <extrude>1</extrude>
            <tessellate>1</tessellate>
            <coordinates>
                30.2625,59.80028
                2.07833,41.29694
            </coordinates>
        </LineString>
    </Placemark>
    <Placemark>
        <name>Route KJFK - LEBL</name>
        <styleUrl>#Non Schengen</styleUrl>
        <LineString>
            <altitudeMode>clampToGround</altitudeMode>
            <extrude>1</extrude>
            <tessellate>1</tessellate>
            <coordinates>
                -73.77833,40.64028
                2.07833,41.29694
            </coordinates>
        </LineString>
    </Placemark>
    <Placemark>
        <name>Route EDDK - LEBL</name>
        <styleUrl>#Schengen</styleUrl>
        <LineString>
            <altitudeMode>clampToGround</altitudeMode>
            <extrude>1</extrude>
            <tessellate>1</tessellate>
            <coordinates>
                7.14278,50.86583
                2.07833,41.29694
            </coordinates>
        </LineString>
    </Placemark>
    <Placemark>
        <name>Route EVRA - LEBL</name>
        <styleUrl>#Schengen</styleUrl>
        <LineString>
            <altitudeMode>clampToGround</altitudeMode>
            <extrude>1</extrude>
            <tessellate>1</tessellate>
            <coordinates>
                23.97111,56.92361
                2.07833,41.29694
            </coordinates>
        </LineString>
    </Placemark>
    <Placemark>
        <name>Route EIDW - LEBL</name>
        <styleUrl>#Non Schengen</styleUrl>
        <LineString>
            <altitudeMode>clampToGround</altitudeMode>
            <extrude>1</extrude>
            <tessellate>1</tessellate>
            <coordinates>
                -6.27,53.42139
                2.07833,41.29694
            </coordinates>
        </LineString>
    </Placemark>
    <Placemark>
        <name>Route EDDB - LEBL</name>
        <styleUrl>#Schengen</styleUrl>
        <LineString>
            <altitudeMode>clampToGround</altitudeMode>
            <extrude>1</extrude>
            <tessellate>1</tessellate>
            <coordinates>
                13.50056,52.36222
                2.07833,41.29694
            </coordinates>
        </LineString>
    </Placemark>
    <Placemark>
        <name>Route LFSB - LEBL</name>
        <styleUrl>#Schengen</styleUrl>
        <LineString>
            <altitudeMode>clampToGround</altitudeMode>
            <extrude>1</extrude>
            <tessellate>1</tessellate>
            <coordinates>
                7.52917,47.59
                2.07833,41.29694
            </coordinates>
        </LineString>
    </Placemark>
    <Placemark>
        <name>Route SBGR - LEBL</name>
        <styleUrl>#Non Schengen</styleUrl>
        <LineString>
            <altitudeMode>clampToGround</altitudeMode>
            <extrude>1</extrude>
            <tessellate>1</tessellate>
            <coordinates>
                -46.47,-23.43333
                2.07833,41.29694
            </coordinates>
        </LineString>
    </Placemark>
    <Placemark>
        <name>Route OLBA - LEBL</name>
        <styleUrl>#Non Schengen</styleUrl>
        <LineString>
            <altitudeMode>clampToGround</altitudeMode>
            <extrude>1</extrude>
            <tessellate>1</tessellate>
            <coordinates>
                35.49,33.81917
                2.07833,41.29694
            </coordinates>
        </LineString>
    </Placemark>
    <Placemark>
        <name>Route LIBD - LEBL</name>
        <styleUrl>#Schengen</styleUrl>
        <LineString>
            <altitudeMode>clampToGround</altitudeMode>
            <extrude>1</extrude>
            <tessellate>1</tessellate>
            <coordinates>
                16.765,41.13806
                2.07833,41.29694
            </coordinates>
        </LineString>
    </Placemark>
    <Placemark>
        <name>Route EDDN - LEBL</name>
        <styleUrl>#Schengen</styleUrl>
        <LineString>
            <altitudeMode>clampToGround</altitudeMode>
            <extrude>1</extrude>
            <tessellate>1</tessellate>
            <coordinates>
                11.07806,49.49861
                2.07833,41.29694
            </coordinates>
        </LineString>
    </Placemark>
    <Placemark>
        <name>Route LEVC - LEBL</name>
        <styleUrl>#Schengen</styleUrl>
        <LineString>
            <altitudeMode>clampToGround</altitudeMode>
            <extrude>1</extrude>
            <tessellate>1</tessellate>
            <coordinates>
                -0.48167,39.48944
                2.07833,41.29694
            </coordinates>
        </LineString>
    </Placemark>
    <Placemark>
        <name>Route ESKN - LEBL</name>
        <styleUrl>#Schengen</styleUrl>
        <LineString>
            <altitudeMode>clampToGround</altitudeMode>
            <extrude>1</extrude>
            <tessellate>1</tessellate>
            <coordinates>
                16.90361,58.78861
                2.07833,41.29694
            </coordinates>
        </LineString>
    </Placemark>
    <Placemark>
        <name>Route UUEE - LEBL</name>
        <styleUrl>#Non Schengen</styleUrl>
        <LineString>
            <altitudeMode>clampToGround</altitudeMode>
            <extrude>1</extrude>
            <tessellate>1</tessellate>
            <coordinates>
                37.41306,55.9725
                2.07833,41.29694
            </coordinates>
        </LineString>
    </Placemark>
    <Placemark>
        <name>Route EGCC - LEBL</name>
        <styleUrl>#Non Schengen</styleUrl>
        <LineString>
            <altitudeMode>clampToGround</altitudeMode>
            <extrude>1</extrude>
            <tessellate>1</tessellate>
            <coordinates>
                -2.275,53.35389
                2.07833,41.29694
            </coordinates>
        </LineString>
    </Placemark>
    <Placemark>
        <name>Route DAAG - LEBL</name>
        <styleUrl>#Non Schengen</styleUrl>
        <LineString>
            <altitudeMode>clampToGround</altitudeMode>
            <extrude>1</extrude>
            <tessellate>1</tessellate>
            <coordinates>
                3.21444,36.69389
                2.07833,41.29694
            </coordinates>
        </LineString>
    </Placemark>
    <Placemark>
        <name>Route LELN - LEBL</name>
        <styleUrl>#Schengen</styleUrl>
        <LineString>
            <altitudeMode>clampToGround</altitudeMode>
            <extrude>1</extrude>
            <tessellate>1</tessellate>
            <coordinates>
                -5.65611,42.58861
                2.07833,41.29694
            </coordinates>
        </LineString>
    </Placemark>
    <Placemark>
        <name>Route OMDB - LEBL</name>
        <styleUrl>#Non Schengen</styleUrl>
        <LineString>
            <altitudeMode>clampToGround</altitudeMode>
            <extrude>1</extrude>
            <tessellate>1</tessellate>
            <coordinates>
                55.36,25.24917
                2.07833,41.29694
            </coordinates>
        </LineString>
    </Placemark>
    <Placemark>
        <name>Route LEAL - LEBL</name>
        <styleUrl>#Schengen</styleUrl>
        <LineString>
            <altitudeMode>clampToGround</altitudeMode>
            <extrude>1</extrude>
            <tessellate>1</tessellate>
            <coordinates>
                -0.55806,38.28222
                2.07833,41.29694
            </coordinates>
        </LineString>
    </Placemark>
    <Placemark>
        <name>Route LFMN - LEBL</name>
        <styleUrl>#Schengen</styleUrl>
        <LineString>
            <altitudeMode>clampToGround</altitudeMode>
            <extrude>1</extrude>
            <tessellate>1</tessellate>
            <coordinates>
                7.215,43.66528
                2.07833,41.29694
            </coordinates>
        </LineString>
    </Placemark>
    <Placemark>
        <name>Route GMTT - LEBL</name>
        <styleUrl>#Non Schengen</styleUrl>
        <LineString>
            <altitudeMode>clampToGround</altitudeMode>
            <extrude>1</extrude>
            <tessellate>1</tessellate>
            <coordinates>
                -5.92111,35.73167
                2.07833,41.29694
            </coordinates>
        </LineString>
    </Placemark>
    <Placemark>
        <name>Route DTTA - LEBL</name>
        <styleUrl>#Non Schengen</styleUrl>
        <LineString>
            <altitudeMode>clampToGround</altitudeMode>
            <extrude>1</extrude>
            <tessellate>1</tessellate>
            <coordinates>
                10.22694,36.85111
                2.07833,41.29694
            </coordinates>
        </LineString>
    </Placemark>
    <Placemark>
        <name>Route KCLT - LEBL</name>
        <styleUrl>#Non Schengen</styleUrl>
        <LineString>
            <altitudeMode>clampToGround</altitudeMode>
            <extrude>1</extrude>
            <tessellate>1</tessellate>
            <coordinates>
                -80.95,35.21667
                2.07833,41.29694
            </coordinates>
        </LineString>
    </Placemark>
    <Placemark>
        <name>Route LFOB - LEBL</name>
        <styleUrl>#Schengen</styleUrl>
        <LineString>
            <altitudeMode>clampToGround</altitudeMode>
            <extrude>1</extrude>
            <tessellate>1</tessellate>
            <coordinates>
                2.11278,49.45444
                2.07833,41.29694
            </coordinates>
        </LineString>
    </Placemark>
    <Placemark>
        <name>Route EBAW - LEBL</name>
        <styleUrl>#Schengen</styleUrl>
        <LineString>
            <altitudeMode>clampToGround</altitudeMode>
            <extrude>1</extrude>
            <tessellate>1</tessellate>
            <coordinates>
                4.46028,51.18944
                2.07833,41.29694
            </coordinates>
        </LineString>
    </Placemark>
    <Placemark>
        <name>Route LHBP - LEBL</name>
        <styleUrl>#Schengen</styleUrl>
        <LineString>
            <altitudeMode>clampToGround</altitudeMode>
            <extrude>1</extrude>
            <tessellate>1</tessellate>
            <coordinates>
                19.26194,47.43944
                2.07833,41.29694
            </coordinates>
        </LineString>
    </Placemark>
    <Placemark>
        <name>Route UKBB - LEBL</name>
        <styleUrl>#Non Schengen</styleUrl>
        <LineString>
            <altitudeMode>clampToGround</altitudeMode>
            <extrude>1</extrude>
            <tessellate>1</tessellate>
            <coordinates>
                30.89333,50.34472
                2.07833,41.29694
            </coordinates>
        </LineString>
    </Placemark>
    <Placemark>
        <name>Route LGAV - LEBL</name>
        <styleUrl>#Schengen</styleUrl>
        <LineString>
            <altitudeMode>clampToGround</altitudeMode>
            <extrude>1</extrude>
            <tessellate>1</tessellate>
            <coordinates>
                23.94444,37.93667
                2.07833,41.29694
            </coordinates>
        </LineString>
    </Placemark>
    <Placemark>
        <name>Route LTBA - LEBL</name>
        <styleUrl>#Non Schengen</styleUrl>
        <LineString>
            <altitudeMode>clampToGround</altitudeMode>
            <extrude>1</extrude>
            <tessellate>1</tessellate>
            <coordinates>
                28.81417,40.97611
                2.07833,41.29694
            </coordinates>
        </LineString>
    </Placemark>
    <Placemark>
        <name>Route EDDT - LEBL</name>
        <styleUrl>#Schengen</styleUrl>
        <LineString>
            <altitudeMode>clampToGround</altitudeMode>
            <extrude>1</extrude>
            <tessellate>1</tessellate>
            <coordinates>
                13.28778,52.55972
                2.07833,41.29694
            </coordinates>
        </LineString>
    </Placemark>
    <Placemark>
        <name>Route LOWW - LEBL</name>
        <styleUrl>#Schengen</styleUrl>
        <LineString>
            <altitudeMode>clampToGround</altitudeMode>
            <extrude>1</extrude>
            <tessellate>1</tessellate>
            <coordinates>
                16.56972,48.11028
                2.07833,41.29694
            </coordinates>
        </LineString>
    </Placemark>
    <Placemark>
        <name>Route EDDS - LEBL</name>
        <styleUrl>#Schengen</styleUrl>
        <LineString>
            <altitudeMode>clampToGround</altitudeMode>
            <extrude>1</extrude>
            <tessellate>1</tessellate>
            <coordinates>
                9.22194,48.69
                2.07833,41.29694
            </coordinates>
        </LineString>
    </Placemark>
    <Placemark>
        <name>Route KIAD - LEBL</name>
        <styleUrl>#Non Schengen</styleUrl>
        <LineString>
            <altitudeMode>clampToGround</altitudeMode>
            <extrude>1</extrude>
            <tessellate>1</tessellate>
            <coordinates>
                -77.45667,38.945
                2.07833,41.29694
            </coordinates>
        </LineString>
    </Placemark>
    <Placemark>
        <name>Route HECA - LEBL</name>
        <styleUrl>#Non Schengen</styleUrl>
        <LineString>
            <altitudeMode>clampToGround</altitudeMode>
            <extrude>1</extrude>
            <tessellate>1</tessellate>
            <coordinates>
                31.41389,30.11139
                2.07833,41.29694
            </coordinates>
        </LineString>
    </Placemark>
    <Placemark>
        <name>Route ETNL - LEBL</name>
        <styleUrl>#Non Schengen</styleUrl>
        <LineString>
            <altitudeMode>clampToGround</altitudeMode>
            <extrude>1</extrude>
            <tessellate>1</tessellate>
            <coordinates>
                12.27833,53.91917
                2.07833,41.29694
            </coordinates>
        </LineString>
    </Placemark>
    <Placemark>
        <name>Route LRCL - LEBL</name>
        <styleUrl>#Non Schengen</styleUrl>
        <LineString>
            <altitudeMode>clampToGround</altitudeMode>
            <extrude>1</extrude>
            <tessellate>1</tessellate>
            <coordinates>
                23.69222,46.78917
                2.07833,41.29694
            </coordinates>
        </LineString>
    </Placemark>
    <Placemark>
        <name>Route LEGR - LEBL</name>
        <styleUrl>#Schengen</styleUrl>
        <LineString>
            <altitudeMode>clampToGround</altitudeMode>
            <extrude>1</extrude>
            <tessellate>1</tessellate>
            <coordinates>
                -3.77722,37.18861
                2.07833,41.29694
            </coordinates>
        </LineString>
    </Placemark>
    <Placemark>
        <name>Route LFRN - LEBL</name>
        <styleUrl>#Schengen</styleUrl>
        <LineString>
            <altitudeMode>clampToGround</altitudeMode>
            <extrude>1</extrude>
            <tessellate>1</tessellate>
            <coordinates>
                -1.73222,48.07194
                2.07833,41.29694
            </coordinates>
        </LineString>
    </Placemark>
    <Placemark>
        <name>Route SAEZ - LEBL</name>
        <styleUrl>#Non Schengen</styleUrl>
        <LineString>
            <altitudeMode>clampToGround</altitudeMode>
            <extrude>1</extrude>
            <tessellate>1</tessellate>
            <coordinates>
                -58.53583,-34.82222
                2.07833,41.29694
            </coordinates>
        </LineString>
    </Placemark>
    <Placemark>
        <name>Route EHRD - LEBL</name>
        <styleUrl>#Schengen</styleUrl>
        <LineString>
            <altitudeMode>clampToGround</altitudeMode>
            <extrude>1</extrude>
            <tessellate>1</tessellate>
            <coordinates>
                4.43722,51.95694
                2.07833,41.29694
            </coordinates>
        </LineString>
    </Placemark>
    <Placemark>
        <name>Route LTFJ - LEBL</name>
        <styleUrl>#Non Schengen</styleUrl>
        <LineString>
            <altitudeMode>clampToGround</altitudeMode>
            <extrude>1</extrude>
            <tessellate>1</tessellate>
            <coordinates>
                29.30917,40.89833
                2.07833,41.29694
            </coordinates>
        </LineString>
    </Placemark>
    <Placemark>
        <name>Route EDDM - LEBL</name>
        <styleUrl>#Schengen</styleUrl>
        <LineString>
            <altitudeMode>clampToGround</altitudeMode>
            <extrude>1</extrude>
            <tessellate>1</tessellate>
            <coordinates>
                11.78611,48.35389
                2.07833,41.29694
            </coordinates>
        </LineString>
    </Placemark>
    <Placemark>
        <name>Route GCRR - LEBL</name>
        <styleUrl>#Schengen</styleUrl>
        <LineString>
            <altitudeMode>clampToGround</altitudeMode>
            <extrude>1</extrude>
            <tessellate>1</tessellate>
            <coordinates>
                -13.60528,28.94556
                2.07833,41.29694
            </coordinates>
        </LineString>
    </Placemark>
    <Placemark>
        <name>Route EGPK - LEBL</name>
        <styleUrl>#Non Schengen</styleUrl>
        <LineString>
            <altitudeMode>clampToGround</altitudeMode>
            <extrude>1</extrude>
            <tessellate>1</tessellate>
            <coordinates>
                -4.59444,55.50944
                2.07833,41.29694
            </coordinates>
        </LineString>
    </Placemark>
    <Placemark>
        <name>Route EGGW - LEBL</name>
        <styleUrl>#Non Schengen</styleUrl>
        <LineString>
            <altitudeMode>clampToGround</altitudeMode>
            <extrude>1</extrude>
            <tessellate>1</tessellate>
            <coordinates>
                -0.36833,51.87472
                2.07833,41.29694
            </coordinates>
        </LineString>
    </Placemark>
    <Placemark>
        <name>Route EHAM - LEBL</name>
        <styleUrl>#Schengen</styleUrl>
        <LineString>
            <altitudeMode>clampToGround</altitudeMode>
            <extrude>1</extrude>
            <tessellate>1</tessellate>
            <coordinates>
                4.76417,52.30806
                2.07833,41.29694
            </coordinates>
        </LineString>
    </Placemark>
    <Placemark>
        <name>Route LLBG - LEBL</name>
        <styleUrl>#Non Schengen</styleUrl>
        <LineString>
            <altitudeMode>clampToGround</altitudeMode>
            <extrude>1</extrude>
            <tessellate>1</tessellate>
            <coordinates>
                34.88556,32.00944
                2.07833,41.29694
            </coordinates>
        </LineString>
    </Placemark>
    <Placemark>
        <name>Route LIMC - LEBL</name>
        <styleUrl>#Schengen</styleUrl>
        <LineString>
            <altitudeMode>clampToGround</altitudeMode>
            <extrude>1</extrude>
            <tessellate>1</tessellate>
            <coordinates>
                8.72306,45.63
                2.07833,41.29694
            </coordinates>
        </LineString>
    </Placemark>
    <Placemark>
        <name>Route LEXJ - LEBL</name>
        <styleUrl>#Schengen</styleUrl>
        <LineString>
            <altitudeMode>clampToGround</altitudeMode>
            <extrude>1</extrude>
            <tessellate>1</tessellate>
            <coordinates>
                -3.82,43.42694
                2.07833,41.29694
            </coordinates>
        </LineString>
    </Placemark>
    <Placemark>
        <name>Route EKCH - LEBL</name>
        <styleUrl>#Schengen</styleUrl>
        <LineString>
            <altitudeMode>clampToGround</altitudeMode>
            <extrude>1</extrude>
            <tessellate>1</tessellate>
            <coordinates>
                12.65611,55.61806
                2.07833,41.29694
            </coordinates>
        </LineString>
    </Placemark>
    <Placemark>
        <name>Route LIRF - LEBL</name>
        <styleUrl>#Schengen</styleUrl>
        <LineString>
            <altitudeMode>clampToGround</altitudeMode>
            <extrude>1</extrude>
            <tessellate>1</tessellate>
            <coordinates>
                12.23889,41.80028
                2.07833,41.29694
            </coordinates>
        </LineString>
    </Placemark>
    <Placemark>
        <name>Route LEVX - LEBL</name>
        <styleUrl>#Schengen</styleUrl>
        <LineString>
            <altitudeMode>clampToGround</altitudeMode>
            <extrude>1</extrude>
            <tessellate>1</tessellate>
            <coordinates>
                -8.6275,42.22917
                2.07833,41.29694
            </coordinates>
        </LineString>
    </Placemark>
    <Placemark>
        <name>Route LIME - LEBL</name>
        <styleUrl>#Schengen</styleUrl>
        <LineString>
            <altitudeMode>clampToGround</altitudeMode>
            <extrude>1</extrude>
            <tessellate>1</tessellate>
            <coordinates>
                9.70028,45.66889
                2.07833,41.29694
            </coordinates>
        </LineString>
    </Placemark>
    <Placemark>
        <name>Route LFQQ - LEBL</name>
        <styleUrl>#Schengen</styleUrl>
        <LineString>
            <altitudeMode>clampToGround</altitudeMode>
            <extrude>1</extrude>
            <tessellate>1</tessellate>
            <coordinates>
                3.08694,50.56333
                2.07833,41.29694
            </coordinates>
        </LineString>
    </Placemark>
    <Placemark>
        <name>Route EPWA - LEBL</name>
        <styleUrl>#Schengen</styleUrl>
        <LineString>
            <altitudeMode>clampToGround</altitudeMode>
            <extrude>1</extrude>
            <tessellate>1</tessellate>
            <coordinates>
                20.96722,52.16583
                2.07833,41.29694
            </coordinates>
        </LineString>
    </Placemark>
    <Placemark>
        <name>Route KEWR - LEBL</name>
        <styleUrl>#Non Schengen</styleUrl>
        <LineString>
            <altitudeMode>clampToGround</altitudeMode>
            <extrude>1</extrude>
            <tessellate>1</tessellate>
            <coordinates>
                -74.16833,40.69667
                2.07833,41.29694
            </coordinates>
        </LineString>
    </Placemark>
    <Placemark>
        <name>Route EGFF - LEBL</name>
        <styleUrl>#Non Schengen</styleUrl>
        <LineString>
            <altitudeMode>clampToGround</altitudeMode>
            <extrude>1</extrude>
            <tessellate>1</tessellate>
            <coordinates>
                -3.34333,51.39667
                2.07833,41.29694
            </coordinates>
        </LineString>
    </Placemark>
    <Placemark>
        <name>Route ESGG - LEBL</name>
        <styleUrl>#Schengen</styleUrl>
        <LineString>
            <altitudeMode>clampToGround</altitudeMode>
            <extrude>1</extrude>
            <tessellate>1</tessellate>
            <coordinates>
                12.29111,57.66
                2.07833,41.29694
            </coordinates>
        </LineString>
    </Placemark>
    <Placemark>
        <name>Route CYUL - LEBL</name>
        <styleUrl>#Non Schengen</styleUrl>
        <LineString>
            <altitudeMode>clampToGround</altitudeMode>
            <extrude>1</extrude>
            <tessellate>1</tessellate>
            <coordinates>
                -73.74139,45.46806
                2.07833,41.29694
            </coordinates>
        </LineString>
    </Placemark>
    <Placemark>
        <name>Route LEBB - LEBL</name>
        <styleUrl>#Schengen</styleUrl>
        <LineString>
            <altitudeMode>clampToGround</altitudeMode>
            <extrude>1</extrude>
            <tessellate>1</tessellate>
            <coordinates>
                -2.91056,43.30111
                2.07833,41.29694
            </coordinates>
        </LineString>
    </Placemark>
    <Placemark>
        <name>Route LROP - LEBL</name>
        <styleUrl>#Non Schengen</styleUrl>
        <LineString>
            <altitudeMode>clampToGround</altitudeMode>
            <extrude>1</extrude>
            <tessellate>1</tessellate>
            <coordinates>
                26.085,44.57111
                2.07833,41.29694
            </coordinates>
        </LineString>
    </Placemark>
    <Placemark>
        <name>Route LFBT - LEBL</name>
        <styleUrl>#Schengen</styleUrl>
        <LineString>
            <altitudeMode>clampToGround</altitudeMode>
            <extrude>1</extrude>
            <tessellate>1</tessellate>
            <coordinates>
                -0.00278,43.18556
                2.07833,41.29694
            </coordinates>
        </LineString>
    </Placemark>
    <Placemark>
        <name>Route LIPX - LEBL</name>
        <styleUrl>#Schengen</styleUrl>
        <LineString>
            <altitudeMode>clampToGround</altitudeMode>
            <extrude>1</extrude>
            <tessellate>1</tessellate>
            <coordinates>
                10.88778,45.39639
                2.07833,41.29694
            </coordinates>
        </LineString>
    </Placemark>
    <Placemark>
        <name>Route LFST - LEBL</name>
        <styleUrl>#Schengen</styleUrl>
        <LineString>
            <altitudeMode>clampToGround</altitudeMode>
            <extrude>1</extrude>
            <tessellate>1</tessellate>
            <coordinates>
                7.63444,48.54194
                2.07833,41.29694
            </coordinates>
        </LineString>
    </Placemark>
    <Placemark>
        <name>Route GCFV - LEBL</name>
        <styleUrl>#Schengen</styleUrl>
        <LineString>
            <altitudeMode>clampToGround</altitudeMode>
            <extrude>1</extrude>
            <tessellate>1</tessellate>
            <coordinates>
                -13.86389,28.45278
                2.07833,41.29694
            </coordinates>
        </LineString>
    </Placemark>
    <Placemark>
        <name>Route EFHK - LEBL</name>
        <styleUrl>#Schengen</styleUrl>
        <LineString>
            <altitudeMode>clampToGround</altitudeMode>
            <extrude>1</extrude>
            <tessellate>1</tessellate>
            <coordinates>
                24.96333,60.31722
                2.07833,41.29694
            </coordinates>
        </LineString>
    </Placemark>
    <Placemark>
        <name>Route EGLL - LEBL</name>
        <styleUrl>#Non Schengen</styleUrl>
        <LineString>
            <altitudeMode>clampToGround</altitudeMode>
            <extrude>1</extrude>
            <tessellate>1</tessellate>
            <coordinates>
                -0.46139,51.4775
                2.07833,41.29694
            </coordinates>
        </LineString>
    </Placemark>
    <Placemark>
        <name>Route LEVD - LEBL</name>
        <styleUrl>#Schengen</styleUrl>
        <LineString>
            <altitudeMode>clampToGround</altitudeMode>
            <extrude>1</extrude>
            <tessellate>1</tessellate>
            <coordinates>
                -4.85194,41.70611
                2.07833,41.29694
            </coordinates>
        </LineString>
    </Placemark>
    <Placemark>
        <name>Route EGBB - LEBL</name>
        <styleUrl>#Non Schengen</styleUrl>
        <LineString>
            <altitudeMode>clampToGround</altitudeMode>
            <extrude>1</extrude>
            <tessellate>1</tessellate>
            <coordinates>
                -1.74806,52.45389
                2.07833,41.29694
            </coordinates>
        </LineString>
    </Placemark>
    <Placemark>
        <name>Route EYVI - LEBL</name>
        <styleUrl>#Schengen</styleUrl>
        <LineString>
            <altitudeMode>clampToGround</altitudeMode>
            <extrude>1</extrude>
            <tessellate>1</tessellate>
            <coordinates>
                25.28778,54.63694
                2.07833,41.29694
            </coordinates>
        </LineString>
    </Placemark>
    <Placemark>
        <name>Route LEBZ - LEBL</name>
        <styleUrl>#Schengen</styleUrl>
        <LineString>
            <altitudeMode>clampToGround</altitudeMode>
            <extrude>1</extrude>
            <tessellate>1</tessellate>
            <coordinates>
                -6.82139,38.89139
                2.07833,41.29694
            </coordinates>
        </LineString>
    </Placemark>
    <Placemark>
        <name>Route LFBD - LEBL</name>
        <styleUrl>#Schengen</styleUrl>
        <LineString>
            <altitudeMode>clampToGround</altitudeMode>
            <extrude>1</extrude>
            <tessellate>1</tessellate>
            <coordinates>
                -0.71528,44.82861
                2.07833,41.29694
            </coordinates>
        </LineString>
    </Placemark>
    <Placemark>
        <name>Route ESSA - LEBL</name>
        <styleUrl>#Schengen</styleUrl>
        <LineString>
            <altitudeMode>clampToGround</altitudeMode>
            <extrude>1</extrude>
            <tessellate>1</tessellate>
            <coordinates>
                17.91861,59.65194
                2.07833,41.29694
            </coordinates>
        </LineString>
    </Placemark>
    <Placemark>
        <name>Route LEIB - LEBL</name>
        <styleUrl>#Schengen</styleUrl>
        <LineString>
            <altitudeMode>clampToGround</altitudeMode>
            <extrude>1</extrude>
            <tessellate>1</tessellate>
            <coordinates>
                1.37306,38.87278
                2.07833,41.29694
            </coordinates>
        </LineString>
    </Placemark>
    <Placemark>
        <name>Route LGTS - LEBL</name>
        <styleUrl>#Schengen</styleUrl>
        <LineString>
            <altitudeMode>clampToGround</altitudeMode>
            <extrude>1</extrude>
            <tessellate>1</tessellate>
            <coordinates>
                22.97083,40.51972
                2.07833,41.29694
            </coordinates>
        </LineString>
    </Placemark>
    <Placemark>
        <name>Route EBLG - LEBL</name>
        <styleUrl>#Schengen</styleUrl>
        <LineString>
            <altitudeMode>clampToGround</altitudeMode>
            <extrude>1</extrude>
            <tessellate>1</tessellate>
            <coordinates>
                5.44278,50.63639
                2.07833,41.29694
            </coordinates>
        </LineString>
    </Placemark>
    <Placemark>
        <name>Route EBOS - LEBL</name>
        <styleUrl>#Schengen</styleUrl>
        <LineString>
            <altitudeMode>clampToGround</altitudeMode>
            <extrude>1</extrude>
            <tessellate>1</tessellate>
            <coordinates>
                2.86222,51.19889
                2.07833,41.29694
            </coordinates>
        </LineString>
    </Placemark>
    <Placemark>
        <name>Route LBSF - LEBL</name>
        <styleUrl>#Non Schengen</styleUrl>
        <LineString>
            <altitudeMode>clampToGround</altitudeMode>
            <extrude>1</extrude>
            <tessellate>1</tessellate>
            <coordinates>
                23.40833,42.695
                2.07833,41.29694
            </coordinates>
        </LineString>
    </Placemark>
    <Placemark>
        <name>Route LFPG - LEBL</name>
        <styleUrl>#Schengen</styleUrl>
        <LineString>
            <altitudeMode>clampToGround</altitudeMode>
            <extrude>1</extrude>
            <tessellate>1</tessellate>
            <coordinates>
                2.54778,49.00972
                2.07833,41.29694
            </coordinates>
        </LineString>
    </Placemark>
    <Placemark>
        <name>Route LIML - LEBL</name>
        <styleUrl>#Schengen</styleUrl>
        <LineString>
            <altitudeMode>clampToGround</altitudeMode>
            <extrude>1</extrude>
            <tessellate>1</tessellate>
            <coordinates>
                9.27833,45.44944
                2.07833,41.29694
            </coordinates>
        </LineString>
    </Placemark>
    <Placemark>
        <name>Route EKBI - LEBL</name>
        <styleUrl>#Schengen</styleUrl>
        <LineString>
            <altitudeMode>clampToGround</altitudeMode>
            <extrude>1</extrude>
            <tessellate>1</tessellate>
            <coordinates>
                9.15167,55.74028
                2.07833,41.29694
            </coordinates>
        </LineString>
    </Placemark>
    <Placemark>
        <name>Route GMMX - LEBL</name>
        <styleUrl>#Non Schengen</styleUrl>
        <LineString>
            <altitudeMode>clampToGround</altitudeMode>
            <extrude>1</extrude>
            <tessellate>1</tessellate>
            <coordinates>
                -8.04083,31.60861
                2.07833,41.29694
            </coordinates>
        </LineString>
    </Placemark>
    <Placemark>
        <name>Route GCXO - LEBL</name>
        <styleUrl>#Schengen</styleUrl>
        <LineString>
            <altitudeMode>clampToGround</altitudeMode>
            <extrude>1</extrude>
            <tessellate>1</tessellate>
            <coordinates>
                -16.34167,28.48278
                2.07833,41.29694
            </coordinates>
        </LineString>
    </Placemark>
    <Placemark>
        <name>Route SKBO - LEBL</name>
        <styleUrl>#Non Schengen</styleUrl>
        <LineString>
            <altitudeMode>clampToGround</altitudeMode>
            <extrude>1</extrude>
            <tessellate>1</tessellate>
            <coordinates>
                -74.15,4.7
                2.07833,41.29694
            </coordinates>
        </LineString>
    </Placemark>
    <Placemark>
        <name>Route LIRP - LEBL</name>
        <styleUrl>#Schengen</styleUrl>
        <LineString>
            <altitudeMode>clampToGround</altitudeMode>
            <extrude>1</extrude>
            <tessellate>1</tessellate>
            <coordinates>
                10.39556,43.68278
                2.07833,41.29694
            </coordinates>
        </LineString>
    </Placemark>
    <Placemark>
        <name>Route LYBE - LEBL</name>
        <styleUrl>#Non Schengen</styleUrl>
        <LineString>
            <altitudeMode>clampToGround</altitudeMode>
            <extrude>1</extrude>
            <tessellate>1</tessellate>
            <coordinates>
                20.30694,44.81944
                2.07833,41.29694
            </coordinates>
        </LineString>
    </Placemark>
    <Placemark>
        <name>Route EDDV - LEBL</name>
        <styleUrl>#Schengen</styleUrl>
        <LineString>
            <altitudeMode>clampToGround</altitudeMode>
            <extrude>1</extrude>
            <tessellate>1</tessellate>
            <coordinates>
                9.68361,52.46028
                2.07833,41.29694
            </coordinates>
        </LineString>
    </Placemark>
    <Placemark>
        <name>Route EHEH - LEBL</name>
        <styleUrl>#Schengen</styleUrl>
        <LineString>
            <altitudeMode>clampToGround</altitudeMode>
            <extrude>1</extrude>
            <tessellate>1</tessellate>
            <coordinates>
                5.37444,51.45
                2.07833,41.29694
            </coordinates>
        </LineString>
    </Placemark>
    <Placemark>
        <name>Route ELLX - LEBL</name>
        <styleUrl>#Schengen</styleUrl>
        <LineString>
            <altitudeMode>clampToGround</altitudeMode>
            <extrude>1</extrude>
            <tessellate>1</tessellate>
            <coordinates>
                6.20444,49.62333
                2.07833,41.29694
            </coordinates>
        </LineString>
    </Placemark>
    <Placemark>
        <name>Route LFLL - LEBL</name>
        <styleUrl>#Schengen</styleUrl>
        <LineString>
            <altitudeMode>clampToGround</altitudeMode>
            <extrude>1</extrude>
            <tessellate>1</tessellate>
            <coordinates>
                5.08111,45.72556
                2.07833,41.29694
            </coordinates>
        </LineString>
    </Placemark>
    <Placemark>
        <name>Route LEPA - LEBL</name>
        <styleUrl>#Schengen</styleUrl>
        <LineString>
            <altitudeMode>clampToGround</altitudeMode>
            <extrude>1</extrude>
            <tessellate>1</tessellate>
            <coordinates>
                2.73889,39.55167
                2.07833,41.29694
            </coordinates>
        </LineString>
    </Placemark>
    <Placemark>
        <name>Route EGNT - LEBL</name>
        <styleUrl>#Non Schengen</styleUrl>
        <LineString>
            <altitudeMode>clampToGround</altitudeMode>
            <extrude>1</extrude>
            <tessellate>1</tessellate>
            <coordinates>
                -1.68972,55.03806
                2.07833,41.29694
            </coordinates>
        </LineString>
    </Placemark>
    <Placemark>
        <name>Route LEMD - LEBL</name>
        <styleUrl>#Schengen</styleUrl>
        <LineString>
            <altitudeMode>clampToGround</altitudeMode>
            <extrude>1</extrude>
            <tessellate>1</tessellate>
            <coordinates>
                -3.56083,40.47222
                2.07833,41.29694
            </coordinates>
        </LineString>
    </Placemark>
    <Placemark>
        <name>Route LEAS - LEBL</name>
        <styleUrl>#Schengen</styleUrl>
        <LineString>
            <altitudeMode>clampToGround</altitudeMode>
            <extrude>1</extrude>
            <tessellate>1</tessellate>
            <coordinates>
                -6.03472,43.56361
                2.07833,41.29694
            </coordinates>
        </LineString>
    </Placemark>
    <Placemark>
        <name>Route LPPR - LEBL</name>
        <styleUrl>#Schengen</styleUrl>
        <LineString>
            <altitudeMode>clampToGround</altitudeMode>
            <extrude>1</extrude>
            <tessellate>1</tessellate>
            <coordinates>
                -8.67806,41.23556
                2.07833,41.29694
            </coordinates>
        </LineString>
    </Placemark>
    <Placemark>
        <name>Route LEMG - LEBL</name>
        <styleUrl>#Schengen</styleUrl>
        <LineString>
            <altitudeMode>clampToGround</altitudeMode>
            <extrude>1</extrude>
            <tessellate>1</tessellate>
            <coordinates>
                -4.49917,36.675
                2.07833,41.29694
            </coordinates>
        </LineString>
    </Placemark>
    <Placemark>
        <name>Route EPKT - LEBL</name>
        <styleUrl>#Schengen</styleUrl>
        <LineString>
            <altitudeMode>clampToGround</altitudeMode>
            <extrude>1</extrude>
            <tessellate>1</tessellate>
            <coordinates>
                19.08,50.47417
                2.07833,41.29694
            </coordinates>
        </LineString>
    </Placemark>
    <Placemark>
        <name>Route LIPE - LEBL</name>
        <styleUrl>#Schengen</styleUrl>
        <LineString>
            <altitudeMode>clampToGround</altitudeMode>
            <extrude>1</extrude>
            <tessellate>1</tessellate>
            <coordinates>
                11.29694,44.53083
                2.07833,41.29694
            </coordinates>
        </LineString>
    </Placemark>
</Document>
</kml>